[{"OBJECT_NAME":"COSMOS 2583","OBJECT_ID":"2025-026C","EPOCH":"2026-03-09T19:42:40.304448","MEAN_MOTION":14.94821455,"ECCENTRICITY":0.0006043,"INCLINATION":81.9959,"RA_OF_ASC_NODE":175.853,"ARG_OF_PERICENTER":76.2523,"MEAN_ANOMALY":283.9369,"EPHEMERIS_TYPE":0,"CLASSIFICATION_TYPE":"U","NORAD_CAT_ID":62904,"ELEMENT_SET_NO":999,"REV_AT_EPOCH":5935,"BSTAR":0.00033674,"MEAN_MOTION_DOT":3.688e-5,"MEAN_MOTION_DDOT":0},{"OBJECT_NAME":"THOR DELTA 1 R\/B","OBJECT_ID":"1981-100C","EPOCH":"2026-03-09T17:16:14.855232","MEAN_MOTION":12.20113078,"ECCENTRICITY":0.13076159,"INCLINATION":99.9021,"RA_OF_ASC_NODE":315.82,"ARG_OF_PERICENTER":115.2104,"MEAN_ANOMALY":323.5406,"EPHEMERIS_TYPE":0,"CLASSIFICATION_TYPE":"U","NORAD_CAT_ID":12889,"ELEMENT_SET_NO":999,"REV_AT_EPOCH":96921,"BSTAR":0.00019212737,"MEAN_MOTION_DOT":3.67e-6,"MEAN_MOTION_DDOT":0}]
